{
    "CCSDS_OMM_VERS": "3.0",
    "COMMENT": "GENERATED VIA SPACE-TRACK.ORG API",
    "CREATION_DATE": "2025-11-23T21:08:43",
    "ORIGINATOR": "18 SPCS",
    "OBJECT_NAME": "BEIDOU 15",
    "OBJECT_ID": "2012-050B",
    "CENTER_NAME": "EARTH",
    "REF_FRAME": "TEME",
    "TIME_SYSTEM": "UTC",
    "MEAN_ELEMENT_THEORY": "SGP4",
    "EPOCH": "2025-11-22T15:21:15.920640",
    "MEAN_MOTION": "1.86230919",
    "ECCENTRICITY": "0.00106552",
    "INCLINATION": "56.3615",
    "RA_OF_ASC_NODE": "69.7346",
    "ARG_OF_PERICENTER": "348.1714",
    "MEAN_ANOMALY": "11.8019",
    "EPHEMERIS_TYPE": "0",
    "CLASSIFICATION_TYPE": "U",
    "NORAD_CAT_ID": "38775",
    "ELEMENT_SET_NO": "999",
    "REV_AT_EPOCH": "8946",
    "BSTAR": "0.00000000000000",
    "MEAN_MOTION_DOT": "-0.00000034",
    "MEAN_MOTION_DDOT": "0.0000000000000",
    "SEMIMAJOR_AXIS": "27906.197",
    "PERIOD": "773.234",
    "APOAPSIS": "21557.796",
    "PERIAPSIS": "21498.327",
    "OBJECT_TYPE": "PAYLOAD",
    "RCS_SIZE": "LARGE",
    "COUNTRY_CODE": "PRC",
    "LAUNCH_DATE": "2012-09-18",
    "SITE": "XSC",
    "DECAY_DATE": null,
    "FILE": "4896238",
    "GP_ID": "303330768",
    "TLE_LINE0": "0 BEIDOU 15",
    "TLE_LINE1": "1 38775U 12050B   25326.63976760 -.00000034  00000-0  00000-0 0  9998",
    "TLE_LINE2": "2 38775  56.3615  69.7346 0010655 348.1714  11.8019  1.86230919 89464"
}